LEMUR-1                 
1 40044U 14033AL  26188.36969978  .00001471  00000+0  17399-3 0  9999
2 40044  97.7901 337.7295 0048429  13.6614 346.5900 14.85321522648469
LEMUR-2-GREENBERG       
1 42837U 17042N   26188.73183374  .00010951  00000+0  35669-3 0  9996
2 42837  97.3832   9.2717 0007164 291.5288  68.5190 15.31988787491535
LEMUR-2-ANDIS           
1 42838U 17042P   26187.73544482  .00017878  00000+0  51664-3 0  9995
2 42838  97.3685   8.5318 0007107 293.7973  66.2525 15.35678970491455
LEMUR-2-MONSON          
1 42839U 17042Q   26188.45814130  .00010309  00000+0  37280-3 0  9996
2 42839  97.4095   8.9398 0005146 281.0533  79.0128 15.28615242491262
LEMUR-2-FURIAUS         
1 42840U 17042R   26188.73977744  .00011334  00000+0  38105-3 0  9996
2 42840  97.3781   7.1882 0006573 358.8264   1.2961 15.30959490491354
LEMUR-2-PETERG          
1 42841U 17042S   26188.44860667  .00016045  00000+0  47712-3 0  9998
2 42841  97.4001  13.5239 0002862 258.0828 102.0094 15.34821414491548
LEMUR-2-DEMBITZ         
1 42842U 17042T   26187.45219817  .00017223  00000+0  57818-3 0  9991
2 42842  97.3834   8.9463 0005291 313.9812  46.0993 15.30918269491290
LEMUR-2-ZACHARY         
1 42845U 17042W   26188.76866856  .00036347  00000+0  59972-3 0  9991
2 42845  97.3592  20.8688 0002324 287.1749  72.9249 15.52194188492395
LEMUR-2-AMANDA-SVANTE   
1 48269U 21034B   26188.76255922  .00023316  00000+0  67410-3 0  9997
2 48269  97.5748 267.6079 0004103 160.6097 199.5303 15.35628121284216
LEMUR-2-SPECIAL-K       
1 48273U 21034F   26188.76522161  .00175740  00000+0  13220-2 0  9992
2 48273  97.5628 277.2182 0005799 219.6386 140.4453 15.72000030284910
LEMUR-2-EMBRIONOVIS     
1 56970U 23084AQ  26188.37340875  .00009790  00000+0  26323-3 0  9999
2 56970  97.6318 333.3577 0007751 236.9428 123.1072 15.38085565170783
LEMUR-2-DEVERILL-M-T    
1 57391U 23100F   26188.69846859  .00016121  00000+0  39570-3 0  9998
2 57391  99.4460 233.3957 0004797 329.3522  30.7437 15.40821036164403
LEMUR-2-BASS            
1 58259U 23174D   26188.76227032  .00011961  00000+0  26567-3 0  9996
2 58259  97.3840 273.7712 0007968 100.4871 259.7275 15.43815088148533
LEMUR-2-JK0903EM1407    
1 58336U 23174CJ  26188.77314975  .00018867  00000+0  30614-3 0  9996
2 58336  97.3916 279.8389 0004240  57.6840 302.4823 15.52784710148924
LEMUR-2-MJR092620       
1 58340U 23174CN  26188.75140127  .00013318  00000+0  27774-3 0  9994
2 58340  97.3969 279.1695 0006040  54.9208 305.2607 15.45666061148828
LEMUR-2-NIMBUS2000      
1 58899U 24022A   26188.02174236  .00016668  00000+0  40709-3 0  9998
2 58899  97.4093  38.2803 0009530  55.1826 305.0316 15.40867104135329
